{"fetched_at":"2026-03-29T16:36:15Z","count":15609,"tles":[{"name":"STARLINK-31816","line1":"1 59742U 24090N   26087.44372905 -.00000941  00000+0 -24674-4 0  9991","line2":"2 59742  43.0034  77.9586 0000663 276.5637  83.5139 15.27590863106288","category":"Starlink"}]}