{
  "norad_id": 59742,
  "name": "STARLINK-31816",
  "history": [
    {
      "epoch": "2026-03-28T10:38:58.189920",
      "apogee_km": 483.4714629840619,
      "perigee_km": 482.56167402087794,
      "latitude_deg": 42.55208204269966,
      "longitude_deg": -163.2020112001337,
      "semi_major_axis_km": 6861.153568502469,
      "eccentricity": 6.63e-05,
      "inclination_deg": 43.0034,
      "raan_deg": 77.9586,
      "arg_perigee_deg": 276.5637,
      "mean_anomaly_deg": 83.5139,
      "mean_motion_rev_day": 15.27590863
    }
  ]
}